{"type": "FeatureCollection", "features": [ {"type": "Feature", "properties": {"norad_id": 44804, "name": "CARTOSAT-3", "group": "resource", "lat": 80.96412555099812, "lon": 3.268204555106451, "alt_km": 493.54566632050046, "timestamp": "2025-12-25T07:00:33.700376+00:00", "meta": {"OBJECT_NAME": "CARTOSAT-3", "OBJECT_ID": "2019-081A", "EPOCH": "2025-12-24T22:44:03.829920", "MEAN_MOTION": 15.19251545, "ECCENTRICITY": 0.00137093, "INCLINATION": 97.4566, "RA_OF_ASC_NODE": 58.3741, "ARG_OF_PERICENTER": 45.1098, "MEAN_ANOMALY": 315.1247, "EPHEMERIS_TYPE": 0, "CLASSIFICATION_TYPE": "U", "NORAD_CAT_ID": 44804, "ELEMENT_SET_NO": 999, "REV_AT_EPOCH": 33701, "BSTAR": 0.00018169216, "MEAN_MOTION_DOT": 3.769e-05, "MEAN_MOTION_DDOT": 0}, "tle": {"line1": "1 44804U 19081A   25358.94726655  .00003769  00000+0  18169-3 0  9998", "line2": "2 44804  97.4566  58.3741 0013709  45.1098 315.1247 15.19251545337019"}}, "geometry": {"type": "Point", "coordinates": [3.268204555106451, 80.96412555099812]}}, {"type": "Feature", "properties": {"norad_id": 44819, "name": "GAOFEN-12 01", "group": "resource", "lat": -68.50554141909645, "lon": 164.83886137058354, "alt_km": 633.9949625023382, "timestamp": "2025-12-25T07:00:33.700387+00:00", "meta": {"OBJECT_NAME": "GAOFEN-12 01", "OBJECT_ID": "2019-082A", "EPOCH": "2025-12-24T23:23:48.469056", "MEAN_MOTION": 14.80671122, "ECCENTRICITY": 0.00021995, "INCLINATION": 97.8125, "RA_OF_ASC_NODE": 4.9347, "ARG_OF_PERICENTER": 179.1436, "MEAN_ANOMALY": 180.9781, "EPHEMERIS_TYPE": 0, "CLASSIFICATION_TYPE": "U", "NORAD_CAT_ID": 44819, "ELEMENT_SET_NO": 999, "REV_AT_EPOCH": 32831, "BSTAR": 7.1839623e-05, "MEAN_MOTION_DOT": 5.01e-06, "MEAN_MOTION_DDOT": 0}, "tle": {"line1": "1 44819U 19082A   25358.97486654  .00000501  00000+0  71840-4 0  9997", "line2": "2 44819  97.8125   4.9347 0002199 179.1436 180.9781 14.80671122328312"}}, "geometry": {"type": "Point", "coordinates": [164.83886137058354, -68.50554141909645]}}, {"type": "Feature", "properties": {"norad_id": 44873, "name": "CSG-1", "group": "resource", "lat": 66.73259107341788, "lon": 161.63613049282228, "alt_km": 615.0246501830406, "timestamp": "2025-12-25T07:00:33.700397+00:00", "meta": {"OBJECT_NAME": "CSG-1", "OBJECT_ID": "2019-092A", "EPOCH": "2025-12-24T22:36:08.342208", "MEAN_MOTION": 14.82160075, "ECCENTRICITY": 0.00014711, "INCLINATION": 97.8805, "RA_OF_ASC_NODE": 180.0822, "ARG_OF_PERICENTER": 85.3084, "MEAN_ANOMALY": 274.8297, "EPHEMERIS_TYPE": 0, "CLASSIFICATION_TYPE": "U", "NORAD_CAT_ID": 44873, "ELEMENT_SET_NO": 999, "REV_AT_EPOCH": 32566, "BSTAR": 6.8352165e-05, "MEAN_MOTION_DOT": 4.92e-06, "MEAN_MOTION_DDOT": 0}, "tle": {"line1": "1 44873U 19092A   25358.94176322  .00000492  00000+0  68352-4 0  9996", "line2": "2 44873  97.8805 180.0822 0001471  85.3084 274.8297 14.82160075325662"}}, "geometry": {"type": "Point", "coordinates": [161.63613049282228, 66.73259107341788]}}, {"type": "Feature", "properties": {"norad_id": 46277, "name": "NEMO-HD", "group": "resource", "lat": -23.23255681862661, "lon": 61.34972495571019, "alt_km": 449.7719912595094, "timestamp": "2025-12-25T07:00:33.700408+00:00", "meta": {"OBJECT_NAME": "NEMO-HD", "OBJECT_ID": "2020-061F", "EPOCH": "2025-12-24T21:45:27.246240", "MEAN_MOTION": 15.4057199, "ECCENTRICITY": 0.00010762, "INCLINATION": 97.2188, "RA_OF_ASC_NODE": 57.85, "ARG_OF_PERICENTER": 52.72, "MEAN_ANOMALY": 307.4145, "EPHEMERIS_TYPE": 0, "CLASSIFICATION_TYPE": "U", "NORAD_CAT_ID": 46277, "ELEMENT_SET_NO": 999, "REV_AT_EPOCH": 29511, "BSTAR": 0.000284205, "MEAN_MOTION_DOT": 0.00011476, "MEAN_MOTION_DDOT": 0}, "tle": {"line1": "1 46277U 20061F   25358.90656535  .00011476  00000+0  28421-3 0  9995", "line2": "2 46277  97.2188  57.8500 0001076  52.7200 307.4145 15.40571990295111"}}, "geometry": {"type": "Point", "coordinates": [61.34972495571019, -23.23255681862661]}}, {"type": "Feature", "properties": {"norad_id": 46984, "name": "SENTINEL-6A", "group": "resource", "lat": 15.121491481969683, "lon": 143.1377172885699, "alt_km": 1339.2957672926077, "timestamp": "2025-12-25T07:00:33.700418+00:00", "meta": {"OBJECT_NAME": "SENTINEL-6A", "OBJECT_ID": "2020-086A", "EPOCH": "2025-12-24T15:55:56.858592", "MEAN_MOTION": 12.80930713, "ECCENTRICITY": 0.00077606, "INCLINATION": 66.0399, "RA_OF_ASC_NODE": 137.5413, "ARG_OF_PERICENTER": 269.4223, "MEAN_ANOMALY": 90.5903, "EPHEMERIS_TYPE": 0, "CLASSIFICATION_TYPE": "U", "NORAD_CAT_ID": 46984, "ELEMENT_SET_NO": 999, "REV_AT_EPOCH": 23797, "BSTAR": -9.062628e-06, "MEAN_MOTION_DOT": -6.3e-07, "MEAN_MOTION_DDOT": 0}, "tle": {"line1": "1 46984U 20086A   25358.66385253 -.00000063  00000+0 -90626-5 0  9996", "line2": "2 46984  66.0399 137.5413 0007760 269.4223  90.5903 12.80930713237976"}}, "geometry": {"type": "Point", "coordinates": [143.1377172885699, 15.121491481969683]}}, {"type": "Feature", "properties": {"norad_id": 48079, "name": "GAOFEN-12 02", "group": "resource", "lat": -78.81170965152282, "lon": 128.02481721739835, "alt_km": 636.962369308656, "timestamp": "2025-12-25T07:00:33.700428+00:00", "meta": {"OBJECT_NAME": "GAOFEN-12 02", "OBJECT_ID": "2021-026A", "EPOCH": "2025-12-24T23:20:30.266592", "MEAN_MOTION": 14.80689149, "ECCENTRICITY": 0.00035513, "INCLINATION": 97.9857, "RA_OF_ASC_NODE": 352.9203, "ARG_OF_PERICENTER": 76.5559, "MEAN_ANOMALY": 283.6049, "EPHEMERIS_TYPE": 0, "CLASSIFICATION_TYPE": "U", "NORAD_CAT_ID": 48079, "ELEMENT_SET_NO": 999, "REV_AT_EPOCH": 25598, "BSTAR": 7.4383973e-05, "MEAN_MOTION_DOT": 5.19e-06, "MEAN_MOTION_DDOT": 0}, "tle": {"line1": "1 48079U 21026A   25358.97257253  .00000519  00000+0  74384-4 0  9996", "line2": "2 48079  97.9857 352.9203 0003551  76.5559 283.6049 14.80689149255981"}}, "geometry": {"type": "Point", "coordinates": [128.02481721739835, -78.81170965152282]}}, {"type": "Feature", "properties": {"norad_id": 48268, "name": "PLEIADES NEO 3", "group": "resource", "lat": 13.42373863823705, "lon": 69.65513777976274, "alt_km": 624.9365269483751, "timestamp": "2025-12-25T07:00:33.700438+00:00", "meta": {"OBJECT_NAME": "PLEIADES NEO 3", "OBJECT_ID": "2021-034A", "EPOCH": "2025-12-24T21:13:25.224672", "MEAN_MOTION": 14.81670607, "ECCENTRICITY": 0.00013154, "INCLINATION": 97.8943, "RA_OF_ASC_NODE": 71.1511, "ARG_OF_PERICENTER": 90.0173, "MEAN_ANOMALY": 270.119, "EPHEMERIS_TYPE": 0, "CLASSIFICATION_TYPE": "U", "NORAD_CAT_ID": 48268, "ELEMENT_SET_NO": 999, "REV_AT_EPOCH": 25184, "BSTAR": -4.6152324e-05, "MEAN_MOTION_DOT": -4.15e-06, "MEAN_MOTION_DDOT": 0}, "tle": {"line1": "1 48268U 21034A   25358.88431973 -.00000415  00000+0 -46152-4 0  9997", "line2": "2 48268  97.8943  71.1511 0001315  90.0173 270.1190 14.81670607251846"}}, "geometry": {"type": "Point", "coordinates": [69.65513777976274, 13.42373863823705]}}, {"type": "Feature", "properties": {"norad_id": 49070, "name": "PLEIADES NEO 4", "group": "resource", "lat": -13.760445949508977, "lon": -110.39788990441672, "alt_km": 628.9189421665124, "timestamp": "2025-12-25T07:00:33.700452+00:00", "meta": {"OBJECT_NAME": "PLEIADES NEO 4", "OBJECT_ID": "2021-073E", "EPOCH": "2025-12-24T10:41:17.866752", "MEAN_MOTION": 14.81673086, "ECCENTRICITY": 0.00013584, "INCLINATION": 97.8947, "RA_OF_ASC_NODE": 70.715, "ARG_OF_PERICENTER": 91.473, "MEAN_ANOMALY": 268.6638, "EPHEMERIS_TYPE": 0, "CLASSIFICATION_TYPE": "U", "NORAD_CAT_ID": 49070, "ELEMENT_SET_NO": 999, "REV_AT_EPOCH": 23549, "BSTAR": 4.9213728e-05, "MEAN_MOTION_DOT": 3.35e-06, "MEAN_MOTION_DDOT": 0}, "tle": {"line1": "1 49070U 21073E   25358.44534568  .00000335  00000+0  49214-4 0  9999", "line2": "2 49070  97.8947  70.7150 0001358  91.4730 268.6638 14.81673086235493"}}, "geometry": {"type": "Point", "coordinates": [-110.39788990441672, -13.760445949508977]}}, {"type": "Feature", "properties": {"norad_id": 49260, "name": "LANDSAT 9", "group": "resource", "lat": -2.224185040169596, "lon": -113.10110920494036, "alt_km": 705.7919173529581, "timestamp": "2025-12-25T07:00:33.700472+00:00", "meta": {"OBJECT_NAME": "LANDSAT 9", "OBJECT_ID": "2021-088A", "EPOCH": "2025-12-24T18:38:23.131104", "MEAN_MOTION": 14.57109853, "ECCENTRICITY": 0.00011162, "INCLINATION": 98.2078, "RA_OF_ASC_NODE": 66.7123, "ARG_OF_PERICENTER": 93.3243, "MEAN_ANOMALY": 266.8083, "EPHEMERIS_TYPE": 0, "CLASSIFICATION_TYPE": "U", "NORAD_CAT_ID": 49260, "ELEMENT_SET_NO": 999, "REV_AT_EPOCH": 22560, "BSTAR": 0.00010507597, "MEAN_MOTION_DOT": 4.28e-06, "MEAN_MOTION_DDOT": 0}, "tle": {"line1": "1 49260U 21088A   25358.77665661  .00000428  00000+0  10508-3 0  9997", "line2": "2 49260  98.2078  66.7123 0001116  93.3243 266.8083 14.57109853225606"}}, "geometry": {"type": "Point", "coordinates": [-113.10110920494036, -2.224185040169596]}}, {"type": "Feature", "properties": {"norad_id": 51444, "name": "CSG-2", "group": "resource", "lat": -66.80521590127957, "lon": -18.43292115882577, "alt_km": 630.7820298008528, "timestamp": "2025-12-25T07:00:33.700484+00:00", "meta": {"OBJECT_NAME": "CSG-2", "OBJECT_ID": "2022-008A", "EPOCH": "2025-12-24T23:24:45.029952", "MEAN_MOTION": 14.82154748, "ECCENTRICITY": 0.00014619, "INCLINATION": 97.8803, "RA_OF_ASC_NODE": 180.1142, "ARG_OF_PERICENTER": 81.2598, "MEAN_ANOMALY": 278.8781, "EPHEMERIS_TYPE": 0, "CLASSIFICATION_TYPE": "U", "NORAD_CAT_ID": 51444, "ELEMENT_SET_NO": 999, "REV_AT_EPOCH": 21078, "BSTAR": 2.5784814e-05, "MEAN_MOTION_DOT": 1.53e-06, "MEAN_MOTION_DDOT": 0}, "tle": {"line1": "1 51444U 22008A   25358.97552118  .00000153  00000+0  25785-4 0  9990", "line2": "2 51444  97.8803 180.1142 0001461  81.2598 278.8781 14.82154748210780"}}, "geometry": {"type": "Point", "coordinates": [-18.43292115882577, -66.80521590127957]}}]}